# Made by eph2tle, compiled Jan 26 2025 13:45:38
# Run at Mon Jan 27 20:02:13 2025 UTC
#
# No updates
#
#    The following TLEs (Two-Line Elements) were generated by fitting
# a numerically-integrated ephemeris,  based on the orbit given below,
# to the SDP4/SGP4 models.  Each TLE is good for the interval between
# its epoch and the epoch of the subsequent TLE (usually one day).
# The maximum deviation between the numerically integrated ephemerides
# and the TLE-based ephemeris, in kilometers,  is given for each TLE
# as the "worst residual".
#
#    This fitting is done using the 'eph2tle' code packaged with Find_Orb.
# The code has details on how the TLEs were computed :
#
#    https://github.com/Bill-Gray/find_orb/eph2tle.cpp
#
#    Be warned:  the error given is that between the numerically
# integrated ephems and the TLE model.  There will usually be at
# least some additional difference between the ephems and the actual
# motion of the satellite,  especially if the ephemerides are based
# on a short arc.  If the following orbital elements say something
# like "[based on] 10 observations 2015 Jan. 1-13",  and the TLEs
# are for 2015 May,  the extrapolation may be tenuous at best.  If
# your application requires a specific level of accuracy,  you may
# want to contact me;  I can give you some idea as to the fit of the
# underlying data (and possibly TLEs based on newer data).
#
#   You can usually find the underlying observational data,  and the
# fitted orbit,  residuals,  ephemerides,  and sometimes some comments
# about the object,  among the pages listed at
#
#    https://www.projectpluto.com/pluto/mpecs/pseudo.htm
#
#    WARNING:  for this object,  "normal" TLEs cannot be fitted.  (This
# usually means an object with an hyperbolic or nearly-parabolic orbit.)
# For this and similar cases,   an alternative model is used,  in which
# most of the traditional TLE data is replaced by six signed 8-digit hex
# numbers.  These six numbers are a state vector,  numerically integrated
# using a simplified force model.  This is necessary for objects at L2 or
# L1,  and sometimes for objects in high orbits where the SDP4/SGP4 model
# fails.  Some documentation is in 'get_el.cpp' in the source code at
# https://www.github.com/Bill-Gray/sat_code ; look for 'hex' in that file,
# with the actual integration done in 'sdp4.cpp'.  But be aware:  it's my
# own extension,  doesn't work with other code,  and is therefore used
# only when necessary.
#
#    Also,  if you use a TLE outside the "correct" time range (between
# its MJD and that of the next TLE),  all bets are off.  I've carefully
# computed and minimized the worst error over the "correct" time frame,
# but the ephemeris may (or may not) diverge wildly outside of it.
#
# Ephem range: 58156.000000 58207.000000 1.000000
# Created Mon Jan 27 15:02:05 2025
# Ephemeris start:  7 Feb 2018  0:00:00
# Ephemeris end:   30 Mar 2018  0:00:00
# Times are all TDT
# Positions/velocities are in equatorial J2000
# Orbital elements:  2018-017A = NORAD 43205 = Tesla Roadster
#    Perihelion 2018 Feb 4.055520 +/- 0.000138 TT =  1:19:56.9 (JD 2458153.555520)
# Epoch 2018 Feb 28.0 TT; AMR 0.013296 +/- 0.000446 m^2/kg   Earth MOID: 0.0002
# M  15.451611152 +/- 0.00049         Ma: 0.0033                   Find_Orb
# n   0.645309947 +/- 1.69e-5         Peri.  177.373536 +/- 0.000059
# a   1.326245152 +/- 2.32e-5         Node   317.242926 +/- 0.00009
# e   0.25650525 +/- 1.3e-5           Incl.    1.080429 +/- 0.000050
# P   1.527/557.861d         H 25.34  G  0.15   U  5.4
# q 0.986056299 +/- 2.8e-8    Q 1.666434005 +/- 4.64e-5     (J2000 ecliptic)
# 373 of 377 observations 2018 Feb. 8-Mar. 19; mean residual 0".390
#
# 1 NoradU COSPAR   Epoch.epoch     dn/dt/2  d2n/dt2/6 BSTAR    T El# C
# 2 NoradU Inclina RAAscNode Eccent  ArgPeri MeanAno  MeanMotion Rev# C

# Worst residual: 287.39 km
# MJD 58156.000000 (2018 Feb  7  0:00)
2018-017A = NORAD 43205 = Tesla Roadster
1 43205U 18017A   18037.99919926 +000IJ7T0 -000RJBZ8 +0004GTLOH 25844
2 43205                          -000AD16N +000SLDX9 -00001XJG     05

# Worst residual: 9.93 km
# MJD 58157.000000 (2018 Feb  8  0:00)
2018-017A = NORAD 43205 = Tesla Roadster
1 43205U 18017A   18038.99919926 -003WHHHO -002W7KR5 -002JQ2P4H 25843
2 43205                          -000F8WG3 -000D2KBF -000A9G7L     08

# Worst residual: 6.72 km
# MJD 58158.000000 (2018 Feb  9  0:00)
2018-017A = NORAD 43205 = Tesla Roadster
1 43205U 18017A   18039.99919926 -007GHK5L -005YMX9Z -004XT67XH 25842
2 43205                          -000EJ7W5 -000CKRGO -0009RTUS     00

# Worst residual: 0.98 km
# MJD 58159.000000 (2018 Feb 10  0:00)
2018-017A = NORAD 43205 = Tesla Roadster
1 43205U 18017A   18040.99919926 -00AWUGMM -008YAFZE -0079FE3UH 25848
2 43205                          -000EA8XU -000CD59R -0009LPM9     09

# Worst residual: 0.58 km
# MJD 58160.000000 (2018 Feb 11  0:00)
2018-017A = NORAD 43205 = Tesla Roadster
1 43205U 18017A   18041.99919926 -00EBNFGX -00BWJAGL -009JYB21H 25844
2 43205                          -000E5JAY -000C8IIE -0009I8OI     09

# Worst residual: 0.61 km
# MJD 58161.000000 (2018 Feb 12  0:00)
2018-017A = NORAD 43205 = Tesla Roadster
1 43205U 18017A   18042.99919926 -00HPK46X -00ETTQW8 -00BTS1U9H 25841
2 43205                          -000E2KE9 -000C50TY -0009FQSS     04

# Worst residual: 0.76 km
# MJD 58162.000000 (2018 Feb 13  0:00)
2018-017A = NORAD 43205 = Tesla Roadster
1 43205U 18017A   18043.99919926 -00L2VI0X -00HQCHRF -00E32AY9H 25840
2 43205                          -000E0IVN -000C217Z -0009DO96     03

# Worst residual: 0.92 km
# MJD 58163.000000 (2018 Feb 14  0:00)
2018-017A = NORAD 43205 = Tesla Roadster
1 43205U 18017A   18044.99919926 -00OFRXRK -00KM6J1G -00GBVM33H 25848
2 43205                          -000DZ2IM -000BZ9SF -0009BSNN     09

# Worst residual: 1.06 km
# MJD 58164.000000 (2018 Feb 15  0:00)
2018-017A = NORAD 43205 = Tesla Roadster
1 43205U 18017A   18045.99919926 -00RSDPUQ -00NHD6CN -00IK93J8H 25842
2 43205                          -000DY1EI -000BWLQR -00099ZVZ     08

# Worst residual: 1.18 km
# MJD 58165.000000 (2018 Feb 16  0:00)
2018-017A = NORAD 43205 = Tesla Roadster
1 43205U 18017A   18046.99919926 -00V4S30U -00QBWX42 -00KS75AUH 25842
2 43205                          -000DXCD1 -000BTYLU -000987R0     04

# Worst residual: 1.28 km
# MJD 58166.000000 (2018 Feb 17  0:00)
2018-017A = NORAD 43205 = Tesla Roadster
1 43205U 18017A   18047.99919926 -00YH1OTK -00T5TSWD -00MZPR0NH 25844
2 43205                          -000DWXID -000BRB25 -00096F0E     01

# Worst residual: 1.38 km
# MJD 58167.000000 (2018 Feb 18  0:00)
2018-017A = NORAD 43205 = Tesla Roadster
1 43205U 18017A   18048.99919926 -011T8TJE -00VZ3MQM -00P6SO5DH 25843
2 43205                          -000DWRL9 -000BOMDK -00094KYL     01

# Worst residual: 1.49 km
# MJD 58168.000000 (2018 Feb 19  0:00)
2018-017A = NORAD 43205 = Tesla Roadster
1 43205U 18017A   18049.99919926 -0155FI4X -00YRQ2SE -00RDFJEFH 25847
2 43205                          -000DWTNV -000BLW49 -00092P6F     09

# Worst residual: 1.59 km
# MJD 58169.000000 (2018 Feb 20  0:00)
2018-017A = NORAD 43205 = Tesla Roadster
1 43205U 18017A   18050.99919926 -018HNK82 -011JOPXI -00TJLWKTH 25843
2 43205                          -000DX2Y7 -000BJ3XV -00090REB     00

# Worst residual: 1.70 km
# MJD 58170.000000 (2018 Feb 21  0:00)
2018-017A = NORAD 43205 = Tesla Roadster
1 43205U 18017A   18051.99919926 -01BTYN4W -014AZ234 -00VPB9JJH 25841
2 43205                          -000DXIRT -000BG9HJ -0008YRF9     05

# Worst residual: 1.84 km
# MJD 58171.000000 (2018 Feb 22  0:00)
2018-017A = NORAD 43205 = Tesla Roadster
1 43205U 18017A   18052.99919926 -01F6E8OY -0171KHP8 -00XUJ2L0H 25848
2 43205                          -000DY4J5 -000BDCAR -0008WP2U     08

# Worst residual: 2.03 km
# MJD 58172.000000 (2018 Feb 23  0:00)
2018-017A = NORAD 43205 = Tesla Roadster
1 43205U 18017A   18053.99919926 -01IIZPYN -019RGANB -00ZZ8QE8H 25842
2 43205                          -000DYVQB -000BABRN -0008UK61     04

# Worst residual: 2.30 km
# MJD 58173.000000 (2018 Feb 24  0:00)
2018-017A = NORAD 43205 = Tesla Roadster
1 43205U 18017A   18054.99919926 -01LVSCAS -01CGLKQH -0123FLRWH 25844
2 43205                          -000DZS0P -000B773E -0008SCFW     04

# Worst residual: 2.66 km
# MJD 58174.000000 (2018 Feb 25  0:00)
2018-017A = NORAD 43205 = Tesla Roadster
1 43205U 18017A   18055.99919926 -01P8TAXA -01F4Z7ZE -01472Z44H 25840
2 43205                          -000E0T9O -000B3X9V -0008Q1L9     08

# Worst residual: 3.03 km
# MJD 58175.000000 (2018 Feb 26  0:00)
2018-017A = NORAD 43205 = Tesla Roadster
1 43205U 18017A   18056.99919926 -01SM3TA6 -01HSJUWW -016A61SMH 25843
2 43205                          -000E1ZOE -000B0H4E -0008NN88     08

# Worst residual: 3.35 km
# MJD 58176.000000 (2018 Feb 27  0:00)
2018-017A = NORAD 43205 = Tesla Roadster
1 43205U 18017A   18057.99919926 -01VZP6DE -01KF9TAL -018CNXMRH 25845
2 43205                          -000E3BVY -000AWTCQ -0008L4X5     09

# Worst residual: 3.54 km
# MJD 58177.000000 (2018 Feb 28  0:00)
2018-017A = NORAD 43205 = Tesla Roadster
1 43205U 18017A   18058.99919926 -01ZDMWXQ -01N133VJ -01AEJML9H 25849
2 43205                          -000E4V25 -000ASWQE -0008II80     06

# Worst residual: 3.61 km
# MJD 58178.000000 (2018 Mar  1  0:00)
2018-017A = NORAD 43205 = Tesla Roadster
1 43205U 18017A   18059.99919926 -022RYW26 -01PLXHO1 -01CFS101H 25848
2 43205                          -000E6MVN -000AOQ9W -0008FQQY     02

# Worst residual: 3.61 km
# MJD 58179.000000 (2018 Mar  2  0:00)
2018-017A = NORAD 43205 = Tesla Roadster
1 43205U 18017A   18060.99919926 -0266RFAH -01S5QIXV -01EGBYEZH 25844
2 43205                          -000E8PG0 -000AK9FM -0008CU92     05

